OBJECT_NAME,OBJECT_ID,EPOCH,MEAN_MOTION,ECCENTRICITY,INCLINATION,RA_OF_ASC_NODE,ARG_OF_PERICENTER,MEAN_ANOMALY,EPHEMERIS_TYPE,CLASSIFICATION_TYPE,NORAD_CAT_ID,ELEMENT_SET_NO,REV_AT_EPOCH,BSTAR,MEAN_MOTION_DOT,MEAN_MOTION_DDOT
PERSEUS-M1,2014-033AF,2026-05-09T19:59:35.292768,14.95500822,.00129269,97.9623,73.3450,67.5453,292.7134,0,U,40039,999,64490,.10432968E-3,.1096E-4,0
POLYITAN-1,2014-033AJ,2026-05-09T18:58:52.140000,15.31948174,.00053609,98.0980,152.4592,281.1819,78.8818,0,U,40042,999,64771,.41268735E-3,.12654E-3,0
TIGRISAT,2014-033AK,2026-05-09T21:53:50.069184,14.84998858,.00490409,97.7787,280.8161,198.6362,161.3059,0,U,40043,999,63994,.19745359E-3,.1665E-4,0
AEROCUBE 6A,2014-033AM,2026-05-09T22:42:25.046208,14.97680276,.00401274,97.7210,297.3212,141.7751,218.6329,0,U,40045,999,64089,.46054841E-3,.5424E-4,0
AEROCUBE 6B,2014-033AN,2026-05-09T22:02:37.195584,14.99105674,.00376881,97.7178,297.0084,135.2270,225.2005,0,U,40046,999,64102,.3805134E-3,.4631E-4,0
CANX-4,2014-034C,2026-05-09T22:00:52.842528,14.81193306,.00137568,98.3174,3.8175,130.2600,229.9816,0,U,40055,999,63886,.86057682E-4,.613E-5,0
CANX-5,2014-034D,2026-05-09T15:30:09.243648,14.81210008,.00137325,98.3175,3.5773,131.2810,228.9586,0,U,40056,999,62963,.89214531E-4,.638E-5,0
UKUBE-1,2014-037F,2026-05-09T22:45:02.340864,15.12943280,.00005377,98.4250,129.2239,41.1763,318.9506,0,U,40074,999,64277,.35038858E-3,.6099E-4,0
BRITE-PL2 (HEWELIUSZ),2014-049B,2026-05-09T21:00:37.065600,14.94451300,.00128844,97.9055,241.5937,233.2047,126.7991,0,U,40119,999,63572,.12298571E-3,.1268E-4,0
AEROCUBE 5C,2015-058B,2026-05-09T22:44:51.336096,14.91235294,.01297316,64.7689,21.5306,78.3088,283.2548,0,U,40965,999,35995,.20635139E-3,.2238E-4,0
AEROCUBE 7,2015-058C,2026-05-09T22:02:48.221088,14.95426868,.01195434,64.7639,4.6536,77.0274,284.4158,0,U,40966,999,36023,.26665861E-3,.323E-4,0
FOX-1A (AO-85),2015-058D,2026-05-09T21:58:45.109632,14.90742763,.01288664,64.7765,37.8972,71.6036,289.9038,0,U,40967,999,10786,.22301324E-3,.2395E-4,0
SINOD-D 1,2015-058E,2026-05-09T23:13:54.471648,14.95604851,.01173628,64.7769,18.5714,68.3881,292.9688,0,U,40968,999,11094,.27159979E-3,.3292E-4,0
SNAP-3 ALICE,2015-058G,2026-05-09T16:12:23.279616,15.53047484,.00324052,64.7528,236.2327,32.8881,327.4269,0,U,40970,999,11089,.80472038E-3,.51816E-3,0
LMRST-SAT,2015-058H,2026-05-09T20:40:29.197920,14.90367726,.0130654,64.7771,34.3319,73.6319,287.9111,0,U,40971,999,10784,.21641184E-3,.2305E-4,0
SNAP-3 EDDIE,2015-058J,2026-05-09T16:40:09.400800,15.54200684,.00329245,64.7445,227.1654,36.5602,323.7779,0,U,40972,999,11303,.82823835E-3,.55716E-3,0
PROPCUBE 3,2015-058K,2026-05-09T22:10:02.175456,14.93995168,.01228597,64.7705,12.0611,75.1479,286.3205,0,U,40973,999,10908,.24561399E-3,.2866E-4,0
BISONSAT,2015-058L,2026-05-09T19:58:51.824064,15.15414606,.00786093,64.7596,297.5648,63.9629,296.9561,0,U,40974,999,10980,.44309193E-3,.8892E-4,0
SNAP-3 JIMI,2015-058M,2026-05-09T23:21:57.281760,15.01905119,.01048416,64.7665,340.6407,71.1988,290.0468,0,U,40975,999,10848,.32180397E-3,.4564E-4,0
PROPCUBE 1 (FLORA),2015-058N,2026-05-09T21:58:16.258944,14.89002804,.01294764,64.7755,53.8283,75.8983,285.6478,0,U,40976,999,11056,.21214704E-3,.2165E-4,0
SINOD-D 3,2015-058P,2026-05-09T21:09:42.043104,14.93721346,.01179664,64.7739,35.4065,73.4277,287.9754,0,U,40977,999,10903,.26877712E-3,.3093E-4,0
HORYU-4,2016-012D,2026-05-09T18:25:10.260768,15.77249913,.00058467,30.9893,356.5603,357.1247,2.9376,0,U,41340,999,56471,.74260398E-3,.129383E-2,0
RAVAN,2016-067B,2026-05-09T21:27:23.511168,15.51236534,.00071741,97.9939,15.1505,127.8157,232.3744,0,U,41849,999,52175,.52148796E-3,.30529E-3,0
CELTEE 1,2016-067C,2026-05-09T21:07:48.740736,15.19304687,.0001937,98.0723,353.8366,62.8118,297.3312,0,U,41850,999,52006,.17669265E-3,.3652E-4,0
OPTICUBE 04,2016-067D,2026-05-09T19:58:51.758400,15.09497427,.0014267,98.0744,340.1116,245.1865,114.7879,0,U,41851,999,51938,.72929515E-4,.1099E-4,0
AEROCUBE 8D,2016-067E,2026-05-09T14:48:21.360096,15.23860553,.00018734,98.0737,356.8611,267.0195,93.0825,0,U,41852,999,52019,.2194733E-3,.5212E-4,0
AEROCUBE 8C,2016-067F,2026-05-09T20:16:47.022816,15.24099286,.00052249,98.0607,354.3844,177.3276,182.7988,0,U,41853,999,52022,.22077098E-3,.5283E-4,0
CORVUS BC2,2017-042X,2026-05-09T22:16:00.624864,15.06051499,.0011939,97.4038,292.7807,239.7510,120.2537,0,U,42846,999,48130,.19397632E-3,.2775E-4,0
CORVUS BC1,2017-042Y,2026-05-09T22:14:30.465600,15.06223844,.00111588,97.4071,293.5686,213.3852,146.6673,0,U,42847,999,48133,.1948522E-3,.2801E-4,0
MAKERSAT 0,2017-073D,2026-05-09T15:00:28.344384,15.30462530,.01122587,97.4679,11.8824,50.9128,310.2032,0,U,43016,999,46056,.52044554E-3,.18573E-3,0
