PERSEUS-M1              
1 40039U 14033AF  26129.83304737  .00001096  00000+0  10433-3 0  9991
2 40039  97.9623  73.3450 0012926  67.5453 292.7134 14.95500822644903
POLYITAN-1              
1 40042U 14033AJ  26129.79088125  .00012654  00000+0  41269-3 0  9993
2 40042  98.0980 152.4592 0005360 281.1819  78.8818 15.31948174647716
TIGRISAT                
1 40043U 14033AK  26129.91238506  .00001665  00000+0  19745-3 0  9992
2 40043  97.7787 280.8161 0049040 198.6362 161.3059 14.84998858639946
AEROCUBE 6A             
1 40045U 14033AM  26129.94612322  .00005424  00000+0  46055-3 0  9990
2 40045  97.7210 297.3212 0040127 141.7751 218.6329 14.97680276640895
AEROCUBE 6B             
1 40046U 14033AN  26129.91848606  .00004631  00000+0  38051-3 0  9990
2 40046  97.7178 297.0084 0037688 135.2270 225.2005 14.99105674641022
CANX-4                  
1 40055U 14034C   26129.91727827  .00000613  00000+0  86058-4 0  9999
2 40055  98.3174   3.8175 0013756 130.2600 229.9816 14.81193306638860
CANX-5                  
1 40056U 14034D   26129.64594032  .00000638  00000+0  89215-4 0  9995
2 40056  98.3175   3.5773 0013732 131.2810 228.9586 14.81210008629638
UKUBE-1                 
1 40074U 14037F   26129.94794376  .00006099  00000+0  35039-3 0  9995
2 40074  98.4250 129.2239 0000537  41.1763 318.9506 15.12943280642773
BRITE-PL2 (HEWELIUSZ)   
1 40119U 14049B   26129.87542900  .00001268  00000+0  12299-3 0  9990
2 40119  97.9055 241.5937 0012884 233.2047 126.7991 14.94451300635726
AEROCUBE 5C             
1 40965U 15058B   26129.94781639  .00002238  00000+0  20635-3 0  9993
2 40965  64.7689  21.5306 0129731  78.3088 283.2548 14.91235294359953
AEROCUBE 7              
1 40966U 15058C   26129.91861367  .00003230  00000+0  26666-3 0  9991
2 40966  64.7639   4.6536 0119543  77.0274 284.4158 14.95426868360235
FOX-1A (AO-85)          
1 40967U 15058D   26129.91579988  .00002395  00000+0  22301-3 0  9990
2 40967  64.7765  37.8972 0128866  71.6036 289.9038 14.90742763107867
SINOD-D 1               
1 40968U 15058E   26129.96799157  .00003292  00000+0  27160-3 0  9993
2 40968  64.7769  18.5714 0117362  68.3881 292.9688 14.95604851110940
SNAP-3 ALICE            
1 40970U 15058G   26129.67526944  .00051816  00000+0  80472-3 0  9996
2 40970  64.7528 236.2327 0032405  32.8881 327.4269 15.53047484110896
LMRST-SAT               
1 40971U 15058H   26129.86144905  .00002305  00000+0  21641-3 0  9993
2 40971  64.7771  34.3319 0130654  73.6319 287.9111 14.90367726107840
SNAP-3 EDDIE            
1 40972U 15058J   26129.69455325  .00055716  00000+0  82824-3 0  9990
2 40972  64.7445 227.1654 0032924  36.5602 323.7779 15.54200684113034
PROPCUBE 3              
1 40973U 15058K   26129.92363629  .00002866  00000+0  24561-3 0  9994
2 40973  64.7705  12.0611 0122859  75.1479 286.3205 14.93995168109084
BISONSAT                
1 40974U 15058L   26129.83254426  .00008892  00000+0  44309-3 0  9996
2 40974  64.7596 297.5648 0078609  63.9629 296.9561 15.15414606109808
SNAP-3 JIMI             
1 40975U 15058M   26129.97357965  .00004564  00000+0  32180-3 0  9990
2 40975  64.7665 340.6407 0104841  71.1988 290.0468 15.01905119108489
PROPCUBE 1 (FLORA)      
1 40976U 15058N   26129.91546596  .00002165  00000+0  21215-3 0  9997
2 40976  64.7755  53.8283 0129476  75.8983 285.6478 14.89002804110569
SINOD-D 3               
1 40977U 15058P   26129.88173661  .00003093  00000+0  26878-3 0  9994
2 40977  64.7739  35.4065 0117966  73.4277 287.9754 14.93721346109033
HORYU-4                 
1 41340U 16012D   26129.76747987  .00129383  00000+0  74260-3 0  9994
2 41340  30.9893 356.5603 0005846 357.1247   2.9376 15.77249913564714
RAVAN                   
1 41849U 16067B   26129.89402212  .00030529  00000+0  52149-3 0  9996
2 41849  97.9939  15.1505 0007174 127.8157 232.3744 15.51236534521751
CELTEE 1                
1 41850U 16067C   26129.88042524  .00003652  00000+0  17669-3 0  9998
2 41850  98.0723 353.8366 0001937  62.8118 297.3312 15.19304687520063
OPTICUBE 04             
1 41851U 16067D   26129.83254350  .00001099  00000+0  72930-4 0  9992
2 41851  98.0744 340.1116 0014267 245.1865 114.7879 15.09497427519381
AEROCUBE 8D             
1 41852U 16067E   26129.61691389  .00005212  00000+0  21947-3 0  9998
2 41852  98.0737 356.8611 0001873 267.0195  93.0825 15.23860553520197
AEROCUBE 8C             
1 41853U 16067F   26129.84498869  .00005283  00000+0  22077-3 0  9995
2 41853  98.0607 354.3844 0005224 177.3276 182.7988 15.24099286520220
CORVUS BC2              
1 42846U 17042X   26129.92778501  .00002775  00000+0  19398-3 0  9990
2 42846  97.4038 292.7807 0011939 239.7510 120.2537 15.06051499481308
CORVUS BC1              
1 42847U 17042Y   26129.92674150  .00002801  00000+0  19485-3 0  9993
2 42847  97.4071 293.5686 0011158 213.3852 146.6673 15.06223844481331
MAKERSAT 0              
1 43016U 17073D   26129.62532806  .00018573  00000+0  52045-3 0  9996
2 43016  97.4679  11.8824 0112258  50.9128 310.2032 15.30462530460567
